# From  26, 114
D/1766 G1 (Helfenzrieder),e,8.717,93.542,175.689,2.72370,0.219263,0.8521353,273.174,09/29.0/2023,2000,g  9.0,4.0
# From  89, 256
D/1884 O1 (Barnard),e,9.3079,332.8940,339.8291,3.083956,0.1819876,0.57130235,208.7269,09/29.0/2023,2000,g  9.0,4.0
# From  89, 256
D/1886 K1 (Brooks),e,10.9262,39.1626,208.4464,3.551608,0.1472538,0.46834645,267.4767,09/29.0/2023,2000,g  9.0,4.0
# From CCO 8
D/1894 F1 (Denning),e,1.4227,297.3395,198.4103,3.825725,0.1317145,0.69382415,85.4925,09/29.0/2023,2000,g  9.0,4.0
# From  13, 428
D/1895 Q1 (Swift),e,13.5241,135.7928,199.2560,3.723070,0.1371994,0.62688143,262.9397,09/29.0/2023,2000,g  9.0,4.0
# From  114, 147
D/1918 W1 (Schorr),e,6.8224,75.9294,326.4413,4.154677,0.1163853,0.31781829,319.4899,09/29.0/2023,2000,g  9.0,4.0
# From MPC 4601
D/1952 B1 (Harrington-Wilson),e,11.1699,116.4100,5.0017,3.079367,0.1823945,0.62504502,78.7830,09/29.0/2023,2000,g  9.0,4.0
# From MPC 11152
D/1977 C1 (Skiff-Kosai),e,3.1988,80.2892,25.2171,3.827145,0.1316411,0.26875725,104.4380,09/29.0/2023,2000,g  9.0,4.0
# From NK 779
D/1978 R1 (Haneda-Campos),e,4.9452,66.4918,307.1731,3.456134,0.1533975,0.62938872,25.2117,09/29.0/2023,2000,g  9.0,4.0
# From MPC 23764
D/1993 F2-D (Shoemaker-Levy),e,40.9128,160.7207,223.7467,4.218829,0.1137408,0.33197684,354.8472,09/29.0/2023,2000,g  9.0,4.0
# From MPEC 2022-S20
C/1995 O1 (Hale-Bopp),e,89.3839,282.4746,130.1897,177.0576,0.0004183,0.99498931,0.0000,03/30.8124/1997,2000,g -2.0,4.0
# From NK 1615
P/1996 R2 (Lagerkvist),e,2.6001,40.0588,333.4055,3.774054,0.1344287,0.31461449,226.9077,09/29.0/2023,2000,g 11.5,4.0
# From MPC 75703
P/1998 VS24 (LINEAR),e,5.0282,159.0780,244.6708,4.523524,0.1024445,0.24357417,212.6273,09/29.0/2023,2000,g 13.0,2.0
# From NK 731
P/1999 RO28 (LONEOS),e,7.5676,137.8870,231.3028,3.426138,0.1554164,0.67249560,241.5657,09/29.0/2023,2000,g 20.0,2.0
# From MPC 75704
P/1999 XN120 (Catalina),e,5.0299,285.2639,161.6765,4.179144,0.1153647,0.21068852,265.9179,09/29.0/2023,2000,g 13.5,2.0
# From NK 744
P/2000 R2 (LINEAR),e,11.6843,160.2960,176.5918,3.468130,0.1526023,0.53109104,238.6766,09/29.0/2023,2000,g 18.0,4.0
# From MPC 43019
P/2001 H5 (NEAT),e,8.3679,328.6337,224.7002,6.095696,0.0654891,0.59825311,190.6557,09/29.0/2023,2000,g 12.0,4.0
# From MPC 75704
P/2001 Q6 (NEAT),e,56.9123,22.1934,42.9277,7.968564,0.0438161,0.82361022,353.3260,09/29.0/2023,2000,g 13.5,4.0
# From MPC 47727
P/2002 EJ57 (LINEAR),e,4.9798,330.2622,167.2755,6.459453,0.0600358,0.59284917,115.8282,09/29.0/2023,2000,g 12.5,4.0
# From MPC109588
P/2002 T6 (NEAT-LINEAR),e,10.8570,205.9908,219.3326,7.783691,0.0453864,0.56492847,346.6959,09/29.0/2023,2000,g 10.5,4.0
# From MPC 75007
C/2002 VQ94 (LINEAR),e,70.7139,35.1660,99.8838,184.6753,0.0003927,0.96326081,2.5319,09/29.0/2023,2000,g  9.5,2.0
# From MPC 50354
P/2003 F2 (NEAT),e,11.6253,358.9847,192.2573,6.500747,0.0594647,0.54134841,84.2564,09/29.0/2023,2000,g 16.5,2.0
# From MPC 50139
P/2003 QX29 (NEAT),e,11.3966,264.5397,37.6700,8.008652,0.0434876,0.47205147,330.5137,09/29.0/2023,2000,g  8.5,4.0
# From MPC105235
P/2003 T12 (SOHO),e,11.0253,174.5873,219.7665,2.584775,0.2371756,0.77027473,293.8874,09/29.0/2023,2000,g 17.0,4.0
# From MPC 54558
P/2004 DO29 (Spacewatch-LINEAR),e,14.5292,147.3243,40.4840,7.304006,0.0499301,0.44175875,347.6083,09/29.0/2023,2000,g 13.5,2.0
# From MPEC 2022-YN2
P/2004 FY140 (LINEAR),e,2.1619,327.2731,254.1409,4.969982,0.0889553,0.19177041,249.4604,09/29.0/2023,2000,g 12.5,2.0
# From MPC 53304
P/2004 R3 (LINEAR-NEAT),e,12.7890,305.1370,37.6247,4.756143,0.0950215,0.25474736,70.3356,09/29.0/2023,2000,g 14.5,4.0
# From MPC 75705
P/2004 V5 (LINEAR-Hill),e,19.3475,47.7398,87.4760,8.003993,0.0435255,0.44607691,298.5583,09/29.0/2023,2000,g  8.0,4.0
# From MPC 75705
P/2004 V5-B (LINEAR-Hill),e,19.3476,47.7402,87.4789,8.004419,0.0435221,0.44610258,298.5213,09/29.0/2023,2000,g  8.0,4.0
# From MPC 54164
P/2005 E1 (Tubbiolo),e,4.2626,335.5287,193.8746,7.057550,0.0525682,0.37616318,0.0612,09/29.0/2023,2000,g 10.0,4.0
# From MPC 79019
P/2005 J1 (McNaught),e,31.7384,268.7981,338.9244,3.573081,0.1459284,0.56891148,264.8647,09/29.0/2023,2000,g 16.5,4.0
# From MPC 74246
P/2005 L1 (McNaught),e,7.6651,137.8103,151.2762,4.012971,0.1226041,0.21853305,84.1250,09/29.0/2023,2000,g  9.5,4.0
# From MPC 75706
P/2005 S2 (Skiff),e,3.1366,161.3661,229.5633,7.997238,0.0435807,0.19889617,275.4633,09/29.0/2023,2000,g  7.5,4.0
# From MPC 75706
P/2005 SB216 (LONEOS),e,24.1101,1.1277,83.2184,7.150784,0.0515435,0.46527668,316.7640,09/29.0/2023,2000,g 12.0,2.0
# From MPC 73461
P/2005 T3 (Read),e,6.2261,27.6746,6.7271,7.588085,0.0471526,0.17557264,310.4456,09/29.0/2023,2000,g  9.0,4.0
# From MPC 73461
P/2005 T4 (SWAN),e,60.2911,25.9519,41.8668,9.356460,0.0344379,0.92993921,225.8503,09/29.0/2023,2000,g 15.0,4.0
# From MPC 75706
P/2005 T5 (Broughton),e,21.3833,57.0683,304.7022,7.273012,0.0502496,0.55251704,328.6171,09/29.0/2023,2000,g 11.0,4.0
# From MPC 75707
P/2006 HR30 (Siding Spring),e,31.9001,309.8518,117.3835,7.805348,0.0451976,0.84350140,276.9796,09/29.0/2023,2000,g 11.0,4.0
# From MPC 75707
P/2007 C2 (Catalina),e,8.6125,275.2694,180.1517,7.005929,0.0531503,0.47278395,311.8908,09/29.0/2023,2000,g 10.0,4.0
# From MPC 84315
C/2007 D1 (LINEAR),e,41.5032,171.1939,339.7071,1143,0.0000255,0.99233244,0.0000,06/08.4523/2007,2000,g  3.5,4.0
# From MPC 82314
P/2007 K2 (Gibbs),e,7.6257,188.5931,347.3181,7.288653,0.0500879,0.68388534,300.5879,09/29.0/2023,2000,g 14.0,4.0
# From MPC 60925
P/2007 Q2 (Gilmore),e,10.2012,172.1877,162.8688,5.660099,0.0731927,0.66966739,75.8500,09/29.0/2023,2000,g 16.0,4.0
# From MPC 73462
P/2007 S1 (Zhao),e,5.9650,141.3312,245.2000,3.817023,0.1321651,0.33853336,47.2207,09/29.0/2023,2000,g 13.0,4.0
# From MPC 61994
P/2007 T2 (Kowalski),e,9.7508,3.3898,359.6700,3.044294,0.1855557,0.78565989,350.7933,09/29.0/2023,2000,g 18.5,4.0
# From MPC 64114
P/2008 O3 (Boattini),e,32.3287,47.6083,341.1642,8.211634,0.0418851,0.69665376,234.1627,09/29.0/2023,2000,g 13.0,4.0
# From MPC 75710
P/2008 Y3 (McNaught),e,38.7778,262.8260,238.0506,8.045674,0.0431877,0.44661768,233.3090,09/29.0/2023,2000,g  8.5,4.0
# From MPC 75710
P/2009 B1 (Boattini),e,22.2480,297.1047,128.9145,6.734728,0.0563928,0.63598100,303.3071,09/29.0/2023,2000,g 13.0,4.0
# From MPC 66466
C/2009 G1 (STEREO),e,8.5321,120.6759,175.5311,465.6899,0.0000981,0.99752512,0.0000,04/15.4871/2009,2000,g  9.0,4.0
# From MPC 75710
P/2009 O3 (Hill),e,16.2791,183.7085,154.4827,7.767028,0.0455325,0.68732340,238.2924,09/29.0/2023,2000,g 12.5,4.0
# From MPC 68902
P/2009 Q5 (McNaught),e,40.9872,160.2881,209.1353,7.426863,0.0486963,0.60986141,249.4350,09/29.0/2023,2000,g 10.0,4.0
# From MPC112389
P/2009 T2 (La Sagra),e,27.6168,216.3608,215.8980,7.714777,0.0459959,0.76707301,230.6905,09/29.0/2023,2000,g 14.0,4.0
# From MPC105235
P/2009 WX51 (Catalina),e,9.5920,31.5599,118.2517,3.082738,0.1820955,0.73930184,190.7544,09/29.0/2023,2000,g 19.0,2.0
# From MPC 74247
P/2009 Y2 (Kowalski),e,29.9683,262.0776,172.1421,6.547085,0.0588345,0.63724308,291.7679,09/29.0/2023,2000,g 13.0,4.0
# From MPC 75711
P/2010 A3 (Hill),e,14.8185,63.6518,42.2371,6.092190,0.0655456,0.73398344,325.2897,09/29.0/2023,2000,g 14.0,4.0
# From MPC 75008
P/2010 C1 (Scotti),e,9.1198,141.6663,3.2408,7.113002,0.0519547,0.26186949,265.0483,09/29.0/2023,2000,g  9.5,4.0
# From MPC 75008
P/2010 D2 (WISE),e,57.1116,319.8736,119.9307,6.721937,0.0565539,0.45168974,282.0032,09/29.0/2023,2000,g 16.0,4.0
# From MPC 75009
P/2010 E2 (Jarnac),e,15.3911,177.7935,8.2802,8.639684,0.0388112,0.71961737,191.8046,09/29.0/2023,2000,g 14.0,4.0
# From MPC 72851
P/2010 H2 (Vales),e,14.2795,64.1873,128.0404,3.831698,0.1314066,0.19707732,290.6551,09/29.0/2023,2000,g  6.0,4.0
# From MPC 70361
P/2010 H3 (SOHO),e,23.1298,77.1596,26.0813,3.036050,0.1863120,0.98546636,0.0000,02/07.8653/2021,2000,g 20.0,2.0
# From MPC 73463
P/2010 H4 (Scotti),e,2.3179,44.6155,179.2213,6.606576,0.0580416,0.26601774,282.8555,09/29.0/2023,2000,g 10.5,4.0
# From MPC 74637
P/2010 H5 (Scotti),e,14.0574,24.5907,174.6415,7.174949,0.0512833,0.15283414,254.1163,09/29.0/2023,2000,g 13.0,2.0
# From MPC 98558
P/2010 J3 (McMillan),e,13.2472,106.5039,157.5277,8.984231,0.0366001,0.72473857,175.2507,09/29.0/2023,2000,g 11.0,4.0
# From MPC 84315
P/2010 JC81 (WISE),e,38.8230,30.8804,12.4432,8.103836,0.0427236,0.77827413,193.7698,09/29.0/2023,2000,g  9.0,4.0
# From MPC 74248
P/2010 T2 (PANSTARRS),e,7.8867,57.9773,352.2152,5.624050,0.0738976,0.32832200,348.0305,09/29.0/2023,2000,g 11.5,4.0
# From MPEC 2023-O88
P/2010 TO20 (LINEAR-Grauer),e,2.4788,43.2740,267.8052,5.832314,0.0699750,0.05554478,21.1105,09/29.0/2023,2000,g  9.0,4.0
# From MPC 82316
P/2010 U1 (Boattini),e,8.2242,280.8049,86.3315,6.495796,0.0595327,0.24914445,296.0234,09/29.0/2023,2000,g  9.5,4.0
# From MPEC 2023-J95
C/2010 U3 (Boattini),e,55.5669,42.9873,88.0376,3582,0.0000046,0.99764422,0.0000,02/25.8101/2019,2000,g  1.0,4.0
# From MPC 79021
P/2010 UH55 (Spacewatch),e,8.0375,232.9036,225.1519,6.653688,0.0574262,0.56422629,261.8760,09/29.0/2023,2000,g 11.0,4.0
# From MPC 75009
P/2010 WK (LINEAR),e,11.4022,11.3447,40.9938,5.762289,0.0712544,0.69069068,338.8863,09/29.0/2023,2000,g 14.5,2.0
# From MPC 84021
P/2011 C2 (Gibbs),e,10.8876,11.9535,160.4165,7.413037,0.0488326,0.26957039,210.6163,09/29.0/2023,2000,g  9.0,4.0
# From MPC 79866
P/2011 FR143 (Lemmon),e,15.9737,190.8749,349.8695,6.868187,0.0547572,0.45128406,252.8174,09/29.0/2023,2000,g 14.0,2.0
# From MPC 82317
P/2011 JB15 (Spacewatch-Boattini),e,19.1360,153.5544,110.9940,7.372168,0.0492392,0.31506527,210.7778,09/29.0/2023,2000,g  9.0,4.0
# From MPC 87913
P/2011 N1 (ASH),e,35.7762,77.6271,330.3941,6.240885,0.0632171,0.54549114,261.8046,09/29.0/2023,2000,g 11.5,4.0
# From MPC 75714
P/2011 NO1 (Elenin),e,15.2455,295.8153,263.7189,5.535617,0.0756755,0.77481690,351.7547,09/29.0/2023,2000,g 15.0,4.0
# From MPEC 2022-ED3
P/2011 P1 (McNaught),e,5.6582,4.2928,349.1653,7.458022,0.0483914,0.32745520,232.3784,09/29.0/2023,2000,g  9.0,4.0
# From MPEC 2022-HC2
